GLOBALSTAR M080         
1 38041U 11080B   26193.50375738 -.00000088  00000+0  89222-4 0  9998
2 38041  52.0063 301.9378 0000328  82.4207 358.7321 12.62257343672088
GLOBALSTAR M082         
1 38042U 11080C   26193.61659144 -.00000074  00000+0  16780-3 0  9990
2 38042  52.0062 257.0989 0000209 103.7899  60.2174 12.62264067672801
GLOBALSTAR M092         
1 38043U 11080D   26193.73512428 -.00000093  00000+0  62462-4 0  9997
2 38043  52.0105 347.1348 0000815  99.7659   2.4655 12.62267706671276
GLOBALSTAR M090         
1 38044U 11080E   26191.23949641 -.00000081  00000+0  12812-3 0  9992
2 38044  52.0114 258.2983 0000451 107.2704 288.2798 12.62253056672621
GLOBALSTAR M086         
1 38045U 11080F   26193.15726029 -.00000080  00000+0  13497-3 0  9998
2 38045  51.9881 252.3489 0001566 107.5659 270.3720 12.62287700672818
GLOBALSTAR M097         
1 39072U 13005A   26192.94751050 -.00000106  00000+0 -11064-4 0  9995
2 39072  52.0024 167.9625 0000344  35.7259 324.3631 12.62271437620032
GLOBALSTAR M093         
1 39073U 13005B   26193.31665071 -.00000106  00000+0 -13609-4 0  9992
2 39073  52.0086 160.1951 0000577  39.7706 320.3203 12.62266352620038
GLOBALSTAR M094         
1 39074U 13005C   26193.79160740 -.00000126  00000+0 -12471-3 0  9995
2 39074  51.9963  72.8414 0000950  60.0129 300.0832 12.62264076621704
GLOBALSTAR M096         
1 39075U 13005D   26193.80513618 -.00000121  00000+0 -95270-4 0  9998
2 39075  52.0065 121.6211 0000686  36.2149 323.8764 12.62265656620623
GLOBALSTAR M078         
1 39076U 13005E   26193.06559569 -.00000083  00000+0  11342-3 0  9995
2 39076  51.9843 207.8490 0000758 328.5209  31.5612 12.62260125619153
GLOBALSTAR M095         
1 39077U 13005F   26193.40901959 -.00000081  00000+0  12839-3 0  9998
2 39077  52.0054 204.4426 0000352  10.4758 349.6116 12.62264177619050
GLOBALSTAR M087         
1 52888U 22064A   26193.58051144 -.00000103  00000+0  31520-5 0  9994
2 52888  52.0015 345.1442 0000929  82.3508 277.7464 12.62269324194340
